NORAD_CAT_ID,OBJECT_NAME,OBJECT_TYPE,EPOCH,MEAN_MOTION,ECCENTRICITY,INCLINATION,RA_OF_ASC_NODE,ARG_OF_PERICENTER,MEAN_ANOMALY,BSTAR,MEAN_MOTION_DOT,MEAN_MOTION_DDOT,TLE_LINE0,TLE_LINE1,TLE_LINE2,SEMIMAJOR_AXIS,PERIOD,APOGEE,PERIGEE,DECAYED
53037.0,STARLINK-4153,PAYLOAD,2023-10-29 10:18:27,15.08856203,0.0001509,53.2168,344.9621,91.51,268.6065,0.00033861,5.107e-05,0.0,0 STARLINK-4153,1 53037U 22076BD  23302.42948526  .00005107  00000-0  33861-3 0  9992,2 53037  53.2168 344.9621 0001509  91.5100 268.6065 15.08856203 73411,6917.831,95.437,540.74,538.652,0.0
53037.0,STARLINK-4153,PAYLOAD,2023-10-30 03:47:42,15.08838811,0.0001279,53.2164,341.6909,80.8616,279.2521,0.00020767,3.019e-05,0.0,0 STARLINK-4153,1 53037U 22076BD  23303.15813629  .00003019  00000-0  20767-3 0  9999,2 53037  53.2164 341.6909 0001279  80.8616 279.2521 15.08838811 73529,6917.884,95.438,540.634,538.864,0.0
53037.0,STARLINK-4153,PAYLOAD,2023-10-30 10:09:15,15.08840655,0.0001607,53.2155,340.4998,83.2383,276.8792,0.00013592,1.876e-05,0.0,0 STARLINK-4153,1 53037U 22076BD  23303.42309571  .00001876  00000-0  13592-3 0  9992,2 53037  53.2155 340.4998 0001607  83.2383 276.8792 15.08840655 73103,6917.878,95.438,540.855,538.632,0.0
53037.0,STARLINK-4153,PAYLOAD,2023-10-31 02:03:07,15.08830255,0.000173,53.216,337.5272,89.8307,270.2883,6.5433e-05,7.53e-06,0.0,0 STARLINK-4153,1 53037U 22076BD  23304.08550248  .00000753  00000-0  65433-4 0  9999,2 53037  53.2160 337.5272 0001730  89.8307 270.2883 15.08830255 73661,6917.91,95.438,540.972,538.578,0.0
53037.0,STARLINK-4153,PAYLOAD,2023-10-31 10:00:03,15.08834684,0.0001637,53.2169,336.0418,89.7062,270.4117,2.0745e-05,4.2e-07,0.0,0 STARLINK-4153,1 53037U 22076BD  23304.41670206  .00000042  00000-0  20745-4 0  9991,2 53037  53.2169 336.0418 0001637  89.7062 270.4117 15.08834684 73256,6917.897,95.438,540.894,538.629,0.0
53037.0,STARLINK-4153,PAYLOAD,2023-10-31 19:32:21,15.08838303,0.0001531,53.2155,334.2559,92.1852,267.9315,0.00018726,2.693e-05,0.0,0 STARLINK-4153,1 53037U 22076BD  23304.81414333  .00002693  00000-0  18726-3 0  9991,2 53037  53.2155 334.2559 0001531  92.1852 267.9315 15.08838303 73315,6917.886,95.438,540.81,538.691,0.0
53037.0,STARLINK-4153,PAYLOAD,2023-11-01 08:15:27,15.08844546,0.0001539,53.2156,331.8751,99.1776,260.9391,0.00033922,5.115e-05,0.0,0 STARLINK-4153,1 53037U 22076BD  23305.34406287  .00005115  00000-0  33922-3 0  9996,2 53037  53.2156 331.8751 0001539  99.1776 260.9391 15.08844546 73855,6917.866,95.437,540.796,538.667,0.0
53037.0,STARLINK-4153,PAYLOAD,2023-11-02 08:06:13,15.08852121,0.0001615,53.2155,327.4142,99.9048,260.2126,0.00028052,4.181e-05,0.0,0 STARLINK-4153,1 53037U 22076BD  23306.33765773  .00004181  00000-0  28052-3 0  9994,2 53037  53.2155 327.4142 0001615  99.9048 260.2126 15.08852121 73547,6917.843,95.437,540.826,538.591,0.0
53037.0,STARLINK-4153,PAYLOAD,2023-11-03 04:46:14,15.0884452,0.00016,53.216,323.5482,100.435,259.6823,9.2971e-05,1.192e-05,0.0,0 STARLINK-4153,1 53037U 22076BD  23307.19877932  .00001192  00000-0  92971-4 0  9991,2 53037  53.2160 323.5482 0001600 100.4350 259.6823 15.08844520 74131,6917.867,95.437,540.838,538.625,0.0
53037.0,STARLINK-4153,PAYLOAD,2023-11-03 11:07:46,15.08848226,0.0001513,53.2162,322.3605,87.4545,272.662,0.00016572,2.351e-05,0.0,0 STARLINK-4153,1 53037U 22076BD  23307.46373816  .00002351  00000-0  16572-3 0  9993,2 53037  53.2162 322.3605 0001513  87.4545 272.6620 15.08848226 73710,6917.855,95.437,540.767,538.674,0.0
53037.0,STARLINK-4153,PAYLOAD,2023-11-04 04:37:01,15.08836356,0.0001635,53.216,319.0866,92.7156,267.4023,2.5692e-05,1.21e-06,0.0,0 STARLINK-4153,1 53037U 22076BD  23308.19238384  .00000121  00000-0  25692-4 0  9991,2 53037  53.2160 319.0866 0001635  92.7156 267.4023 15.08836356 74285,6917.892,95.438,540.888,538.625,0.0
53037.0,STARLINK-4153,PAYLOAD,2023-11-04 10:58:34,15.08845993,0.0001558,53.2164,317.8984,91.0726,269.0445,0.0001086,1.441e-05,0.0,0 STARLINK-4153,1 53037U 22076BD  23308.45733872  .00001441  00000-0  10860-3 0  9998,2 53037  53.2164 317.8984 0001558  91.0726 269.0445 15.08845993 73861,6917.862,95.437,540.805,538.649,0.0
53037.0,STARLINK-4153,PAYLOAD,2023-11-05 10:49:20,15.08860653,0.0001578,53.2161,313.4384,94.7429,265.3743,0.00049512,7.605e-05,0.0,0 STARLINK-4153,1 53037U 22076BD  23309.45093511  .00007605  00000-0  49512-3 0  9992,2 53037  53.2161 313.4384 0001578  94.7429 265.3743 15.08860653 74014,6917.817,95.436,540.774,538.591,0.0
53037.0,STARLINK-4153,PAYLOAD,2023-11-05 17:10:53,15.08845946,0.0001891,53.2167,312.2471,82.5443,277.5763,0.00015451,2.172e-05,0.0,0 STARLINK-4153,1 53037U 22076BD  23309.71589815  .00002172  00000-0  15451-3 0  9997,2 53037  53.2167 312.2471 0001891  82.5443 277.5763 15.08845946 74513,6917.862,95.437,541.035,538.419,0.0
53037.0,STARLINK-4153,PAYLOAD,2023-11-06 07:29:21,15.08857171,0.0002045,53.2168,309.5738,84.343,275.7795,0.00034522,5.213e-05,0.0,0 STARLINK-4153,1 53037U 22076BD  23310.31205522  .00005213  00000-0  34522-3 0  9994,2 53037  53.2168 309.5738 0002045  84.3430 275.7795 15.08857171 74144,6917.828,95.436,541.108,538.278,0.0
53037.0,STARLINK-4153,PAYLOAD,2023-11-07 04:09:24,15.08798539,0.0001217,53.2156,305.7074,80.8207,279.2923,-0.00073362,-0.00011931,0.0,0 STARLINK-4153,1 53037U 22076BD  23311.17319887 -.00011931  00000-0 -73362-3 0  9990,2 53037  53.2156 305.7074 0001217  80.8207 279.2923 15.08798539 74734,6918.007,95.44,540.714,539.03,0.0
53037.0,STARLINK-4153,PAYLOAD,2023-11-07 08:55:34,15.08796943,0.0001256,53.2155,304.8157,76.1277,283.9855,-8.6715e-05,-1.666e-05,0.0,0 STARLINK-4153,1 53037U 22076BD  23311.37192245 -.00001666  00000-0 -86715-4 0  9990,2 53037  53.2155 304.8157 0001256  76.1277 283.9855 15.08796943 74309,6918.012,95.44,540.746,539.008,0.0
53037.0,STARLINK-4153,PAYLOAD,2023-11-07 23:14:03,15.08834076,0.0002054,53.2153,302.1416,37.9443,322.1693,0.001659,0.0002621,0.0,0 STARLINK-4153,1 53037U 22076BD  23311.96809154  .00026210  00000-0  16590-2 0  9991,2 53037  53.2153 302.1416 0002054  37.9443 322.1693 15.08834076 74859,6917.898,95.438,541.184,538.343,0.0
53037.0,STARLINK-4153,PAYLOAD,2023-11-08 08:46:20,15.08892453,9.45e-05,53.2152,300.3586,78.8277,281.2821,0.0026091,0.00041541,0.0,0 STARLINK-4153,1 53037U 22076BD  23312.36551663  .00041541  00000-0  26091-2 0  9996,2 53037  53.2152 300.3586 0000945  78.8277 281.2821 15.08892453 74910,6917.72,95.434,540.239,538.931,0.0
53037.0,STARLINK-4153,PAYLOAD,2023-11-08 16:43:15,15.088698,8.79e-05,53.2158,298.8692,80.1246,279.9846,0.0023416,0.00037206,0.0,0 STARLINK-4153,1 53037U 22076BD  23312.69671246  .00037206  00000-0  23416-2 0  9993,2 53037  53.2158 298.8692 0000879  80.1246 279.9846 15.08869800 74969,6917.789,95.436,540.262,539.046,0.0
53037.0,STARLINK-4153,PAYLOAD,2023-11-09 03:50:57,15.08867968,0.0001224,53.2155,296.789,79.5622,280.5508,0.001239,0.00019501,0.0,0 STARLINK-4153,1 53037U 22076BD  23313.16038908  .00019501  00000-0  12390-2 0  9995,2 53037  53.2155 296.7890 0001224  79.5622 280.5508 15.08867968 75033,6917.795,95.436,540.507,538.813,0.0
53037.0,STARLINK-4153,PAYLOAD,2023-11-09 08:37:06,15.08887563,9.85e-05,53.2152,295.8974,73.5315,286.5786,0.0028989,0.00046211,0.0,0 STARLINK-4153,1 53037U 22076BD  23313.35910452  .00046211  00000-0  28989-2 0  9998,2 53037  53.2152 295.8974 0000985  73.5315 286.5786 15.08887563 75069,6917.735,95.435,540.281,538.919,0.0
53037.0,STARLINK-4153,PAYLOAD,2023-11-09 16:34:02,15.08868606,0.0001151,53.2156,294.4112,65.151,294.9602,0.0010318,0.00016184,0.0,0 STARLINK-4153,1 53037U 22076BD  23313.69030488  .00016184  00000-0  10318-2 0  9990,2 53037  53.2156 294.4112 0001151  65.1510 294.9602 15.08868606 75115,6917.793,95.436,540.454,538.862,0.0
53037.0,STARLINK-4153,PAYLOAD,2023-11-10 03:41:44,15.08851269,0.0001597,53.2156,292.3279,87.6089,272.5086,0.0014552,0.00022955,0.0,0 STARLINK-4153,1 53037U 22076BD  23314.15398785  .00022955  00000-0  14552-2 0  9996,2 53037  53.2156 292.3279 0001597  87.6089 272.5086 15.08851269 75182,6917.846,95.437,540.816,538.606,0.0
53037.0,STARLINK-4153,PAYLOAD,2023-11-10 05:17:07,15.08852287,0.0001492,53.2157,292.0289,88.0686,272.0476,0.0014885,0.00023489,0.0,0 STARLINK-4153,1 53037U 22076BD  23314.22022701  .00023489  00000-0  14885-2 0  9998,2 53037  53.2157 292.0289 0001492  88.0686 272.0476 15.08852287 74732,6917.843,95.437,540.74,538.676,0.0
53037.0,STARLINK-4153,PAYLOAD,2023-11-11 03:32:31,15.08850755,0.0001665,53.2167,287.8643,108.2545,251.8629,0.0012159,0.00019122,0.0,0 STARLINK-4153,1 53037U 22076BD  23315.14759034  .00019122  00000-0  12159-2 0  9997,2 53037  53.2167 287.8643 0001665 108.2545 251.8629 15.08850755 75330,6917.848,95.437,540.864,538.561,0.0
53037.0,STARLINK-4153,PAYLOAD,2023-11-11 05:07:55,15.08843932,0.0001613,53.2167,287.5668,86.611,273.5067,0.00076539,0.00011915,0.0,0 STARLINK-4153,1 53037U 22076BD  23315.21383162  .00011915  00000-0  76539-3 0  9995,2 53037  53.2167 287.5668 0001613  86.6110 273.5067 15.08843932 75341,6917.868,95.437,540.849,538.618,0.0
53037.0,STARLINK-4153,PAYLOAD,2023-11-12 03:23:19,15.08837576,0.0001713,53.2168,283.4034,97.2897,262.829,0.00017248,2.458e-05,0.0,0 STARLINK-4153,1 53037U 22076BD  23316.14119459  .00002458  00000-0  17248-3 0  9998,2 53037  53.2168 283.4034 0001713  97.2897 262.8290 15.08837576 75486,6917.888,95.438,540.938,538.568,0.0
53037.0,STARLINK-4153,PAYLOAD,2023-11-12 04:58:42,15.08840005,0.0001672,53.2168,283.1073,91.0106,269.1078,0.00019803,2.865e-05,0.0,0 STARLINK-4153,1 53037U 22076BD  23316.20743445  .00002865  00000-0  19803-3 0  9994,2 53037  53.2168 283.1073 0001672  91.0106 269.1078 15.08840005 75031,6917.88,95.438,540.902,538.589,0.0
53037.0,STARLINK-4153,PAYLOAD,2023-11-12 22:27:56,15.08839903,0.0001653,53.2167,279.8383,98.9842,261.1337,0.00015705,2.212e-05,0.0,0 STARLINK-4153,1 53037U 22076BD  23316.93607559  .00002212  00000-0  15705-3 0  9992,2 53037  53.2167 279.8383 0001653  98.9842 261.1337 15.08839903 75145,6917.881,95.438,540.889,538.602,0.0
